H1 CPF  1  HTS 2022  3 18 12  5771 larets           NONE
H2  0304206 5557    27944 2022 03 18  0  0  0 2022 03 23  0  0  0   180 1 1  0 0 0
H5  0.0560 
H9 
10 0 59656  72360.00000  0     467818.324    6485677.047    2772754.075
10 0 59656  72540.00000  0     705666.726    5823047.792    3941801.405
10 0 59656  72720.00000  0     897669.386    4943503.625    4966789.023
10 0 59656  72900.00000  0    1031613.519    3880371.048    5810308.554
10 0 59656  73080.00000  0    1098358.183    2673887.563    6441590.249
10 0 59656  73260.00000  0    1092321.512    1369649.628    6837591.552
10 0 59656  73440.00000  0    1011795.655      16875.698    6983805.746
10 0 59656  73620.00000  0     859079.944   -1333445.119    6874771.954
10 0 59656  73800.00000  0     640425.113   -2630463.292    6514286.024
10 0 59656  73980.00000  0     365787.482   -3825383.798    5915296.999
10 0 59656  74160.00000  0      48401.100   -4873316.269    5099481.110
10 0 59656  74340.00000  0    -295814.109   -5734994.176    4096511.213
10 0 59656  74520.00000  0    -648993.198   -6378315.917    2943027.041
10 0 59656  74700.00000  0    -992189.054   -6779624.689    1681313.687
10 0 59656  74880.00000  0   -1306311.787   -6924657.596     357738.085
10 0 59656  75060.00000  0   -1573101.734   -6809112.206    -979003.084
10 0 59656  75240.00000  0   -1776076.428   -6438782.605   -2279744.404
10 0 59656  75420.00000  0   -1901401.295   -5829264.527   -3496726.803
10 0 59656  75600.00000  0   -1938640.523   -5005247.010   -4585403.395
10 0 59656  75780.00000  0   -1881346.318   -3999431.834   -5506089.116
10 0 59656  75960.00000  0   -1727460.300   -2851154.496   -6225386.679
10 0 59656  76140.00000  0   -1479513.055   -1604781.075   -6717349.756
10 0 59656  76320.00000  0   -1144616.693    -307954.352   -6964351.332
10 0 59656  76500.00000  0    -734257.343     990233.232   -6957646.499
10 0 59656  76680.00000  0    -263894.807    2241075.772   -6697633.892
10 0 59656  76860.00000  0     247614.771    3398047.707   -6193821.073
10 0 59656  77040.00000  0     778759.421    4418510.946   -5464497.262
10 0 59656  77220.00000  0    1306252.310    5265280.968   -4536110.111
10 0 59656  77400.00000  0    1806021.886    5908002.068   -3442359.122
10 0 59656  77580.00000  0    2254275.562    6324276.627   -2223017.346
10 0 59656  77760.00000  0    2628590.963    6500497.647    -922513.102
10 0 59656  77940.00000  0    2908983.508    6432338.486     411688.654
10 0 59656  78120.00000  0    3078893.539    6124863.658    1730839.651
10 0 59656  78300.00000  0    3126041.816    5592256.477    2986718.291
10 0 59656  78480.00000  0    3043110.368    4857176.733    4133421.951
10 0 59656  78660.00000  0    2828214.343    3949779.182    5129065.816
10 0 59656  78840.00000  0    2485133.218    2906440.307    5937315.541
10 0 59656  79020.00000  0    2023300.112    1768267.026    6528686.156
10 0 59656  79200.00000  0    1457556.718     579459.964    6881585.070
10 0 59656  79380.00000  0     807676.563    -614406.871    6983066.878
10 0 59656  79560.00000  0      97678.022   -1768122.486    6829293.637
10 0 59656  79740.00000  0    -645056.242   -2838546.293    6425689.439
10 0 59656  79920.00000  0   -1390825.650   -3786225.775    5786775.078
10 0 59656  80100.00000  0   -2108784.214   -4576867.068    4935691.023
10 0 59656  80280.00000  0   -2768213.655   -5182619.724    3903420.893
10 0 59656  80460.00000  0   -3339850.435   -5583123.922    2727704.634
10 0 59656  80640.00000  0   -3797194.507   -5766256.364    1451666.315
10 0 59656  80820.00000  0   -4117737.398   -5728537.483     122212.003
10 0 59656  81000.00000  0   -4284047.962   -5475174.685   -1211743.361
10 0 59656  81180.00000  0   -4284653.408   -5019731.718   -2501144.743
10 0 59656  81360.00000  0   -4114662.836   -4383435.187   -3698670.794
10 0 59656  81540.00000  0   -3776100.083   -3594162.300   -4760516.678
10 0 59656  81720.00000  0   -3277936.498   -2685175.891   -5648007.189
10 0 59656  81900.00000  0   -2635831.079   -1693676.806   -6328980.467
10 0 59656  82080.00000  0   -1871597.807    -659248.310   -6778900.627
10 0 59656  82260.00000  0   -1012427.160     377737.532   -6981671.783
10 0 59656  82440.00000  0     -89902.843    1377683.113   -6930144.850
10 0 59656  82620.00000  0     861152.360    2303249.972   -6626328.345
10 0 59656  82800.00000  0    1803971.639    3120726.729   -6081305.897
10 0 59656  82980.00000  0    2701246.201    3801243.499   -5314854.309
10 0 59656  83160.00000  0    3516584.394    4321791.008   -4354768.615
10 0 59656  83340.00000  0    4215981.733    4666016.285   -3235907.663
10 0 59656  83520.00000  0    4769246.740    4824760.175   -1998971.433
10 0 59656  83700.00000  0    5151315.012    4796305.995    -689042.419
10 0 59656  83880.00000  0    5343387.271    4586324.179     646059.783
10 0 59656  84060.00000  0    5333826.183    4207510.842    1957545.119
10 0 59656  84240.00000  0    5118772.262    3678938.094    3197466.437
10 0 59656  84420.00000  0    4702438.055    3025141.787    4320505.700
10 0 59656  84600.00000  0    4097063.472    2274996.960    5285646.286
10 0 59656  84780.00000  0    3322544.118    1460444.009    6057666.302
10 0 59656  84960.00000  0    2405747.380     615126.502    6608400.626
10 0 59656  85140.00000  0    1379559.306    -226996.336    6917728.957
10 0 59656  85320.00000  0     281700.008   -1033002.617    6974283.537
10 0 59656  85500.00000  0    -846659.946   -1772288.607    6775856.833
10 0 59656  85680.00000  0   -1962434.125   -2417730.273    6329494.495
10 0 59656  85860.00000  0   -3022252.633   -2946684.316    5651276.444
10 0 59656  86040.00000  0   -3984152.460   -3341803.713    4765796.954
10 0 59656  86220.00000  0   -4809273.001   -3591637.566    3705322.998
10 0 59657      0.00000  0   -5463470.838   -3690981.004    2508650.457
10 0 59657    180.00000  0   -5918787.861   -3640961.780    1219695.357
10 0 59657    360.00000  0   -6154697.597   -3448852.648    -114144.517
10 0 59657    540.00000  0   -6159054.726   -3127610.034   -1443788.167
10 0 59657    720.00000  0   -5928691.587   -2695162.310   -2720350.392
10 0 59657    900.00000  0   -5469622.617   -2173484.979   -3897004.528
10 0 59657   1080.00000  0   -4796857.505   -1587520.474   -4930739.027
10 0 59657   1260.00000  0   -3933841.747    -964002.204   -5783935.519
10 0 59657   1440.00000  0   -2911560.099    -330243.684   -6425708.397
10 0 59657   1620.00000  0   -1767356.450     287046.653   -6832962.638
10 0 59657   1800.00000  0    -543529.208     862870.725   -6991152.398
10 0 59657   1980.00000  0     714238.017    1374928.536   -6894736.259
10 0 59657   2160.00000  0    1958560.080    1804459.561   -6547337.783
10 0 59657   2340.00000  0    3142110.467    2136916.515   -5961610.884
10 0 59657   2520.00000  0    4219399.693    2362450.409   -5158802.299
10 0 59657   2700.00000  0    5148514.558    2476192.848   -4168027.956
10 0 59657   2880.00000  0    5892765.052    2478328.292   -3025268.523
10 0 59657   3060.00000  0    6422167.347    2373950.150   -1772104.773
10 0 59657   3240.00000  0    6714698.967    2172705.096    -454224.511
10 0 59657   3420.00000  0    6757254.648    1888236.318     880250.515
10 0 59657   3600.00000  0    6546246.798    1537450.964    2182546.549
10 0 59657   3780.00000  0    6087824.148    1139651.034    3405051.789
10 0 59657   3960.00000  0    5397687.982     715568.566    4503088.167
10 0 59657   4140.00000  0    4500516.969     286358.556    5436556.093
10 0 59657   4320.00000  0    3429039.422    -127398.733    6171390.171
10 0 59657   4500.00000  0    2222795.644    -506639.613    6680775.195
10 0 59657   4680.00000  0     926655.958    -834658.992    6946089.411
10 0 59657   4860.00000  0    -410854.928   -1097825.236    6957560.936
10 0 59657   5040.00000  0   -1739369.237   -1286139.963    6714615.701
10 0 59657   5220.00000  0   -3008559.371   -1393622.166    6225915.080
10 0 59657   5400.00000  0   -4170038.925   -1418502.194    5509088.830
10 0 59657   5580.00000  0   -5179233.777   -1363224.230    4590157.505
10 0 59657   5760.00000  0   -5997146.905   -1234253.016    3502634.924
10 0 59657   5940.00000  0   -6591934.438   -1041686.496    2286334.176
10 0 59657   6120.00000  0   -6940226.423    -798692.019     985915.614
10 0 59657   6300.00000  0   -7028120.075    -520790.869    -350787.348
10 0 59657   6480.00000  0   -6851774.699    -225026.000   -1674589.640
10 0 59657   6660.00000  0   -6417575.948      70941.813   -2936833.704
10 0 59657   6840.00000  0   -5741867.039     349758.114   -4091238.288
10 0 59657   7020.00000  0   -4850258.240     595272.278   -5095635.323
10 0 59657   7200.00000  0   -3776561.630     793358.930   -5913509.191
10 0 59657   7380.00000  0   -2561420.909     932621.883   -6515285.338
10 0 59657   7560.00000  0   -1250711.053    1004949.382   -6879334.505
10 0 59657   7740.00000  0     106220.702    1005904.742   -6992678.425
10 0 59657   7920.00000  0    1458403.099     934938.814   -6851392.262
10 0 59657   8100.00000  0    2755127.362     795420.008   -6460716.528
10 0 59657   8280.00000  0    3947822.649     594482.046   -5834864.866
10 0 59657   8460.00000  0    4991855.223     342694.201   -4996534.565
10 0 59657   8640.00000  0    5848201.143      53565.545   -3976133.622
10 0 59657   8820.00000  0    6484935.512    -257099.464   -2810728.313
10 0 59657   9000.00000  0    6878472.531    -571970.300   -1542736.221
10 0 59657   9180.00000  0    7014498.489    -873050.653    -218397.487
10 0 59657   9360.00000  0    6888541.237   -1142587.393    1113920.596
10 0 59657   9540.00000  0    6506143.983   -1363984.495    2405516.850
10 0 59657   9720.00000  0    5882628.024   -1522673.601    3609172.052
10 0 59657   9900.00000  0    5042452.732   -1606893.752    4680902.176
10 0 59657  10080.00000  0    4018214.076   -1608343.193    5581572.528
10 0 59657  10260.00000  0    2849336.400   -1522668.186    6278314.577
99
